UMBRA-07                
1 58297U 23174AT  26175.13373069  .00008056  00000+0  50973-3 0  9996
2 58297  97.3791 230.6329 0004408  73.9254 286.2461 15.09240547144465
TIANMU-1 14             
1 58648U 23205D   26175.31560437  .00004867  00000+0  18680-3 0  9993
2 58648  97.3400 195.9646 0006140 315.9553  44.1197 15.26922063138596
TIANMU-1 19             
1 58660U 23208A   26175.27754501  .00007391  00000+0  24426-3 0  9992
2 58660  97.4504 291.6140 0003444 294.1862  65.9019 15.31665075138412
TIANMU-1 20             
1 58661U 23208B   26175.30983500  .00006927  00000+0  22074-3 0  9991
2 58661  97.4446 292.2892 0005631 303.0667  57.0034 15.32855814138515
TIANMU-1 21             
1 58662U 23208C   26175.28742154  .00008625  00000+0  25479-3 0  9996
2 58662  97.4506 294.9781 0005678 292.6020  67.4623 15.35184841138658
TIANMU-1 22             
1 58663U 23208D   26175.26174787  .00006699  00000+0  22528-3 0  9997
2 58663  97.4500 291.5282 0002562 334.3500  25.7613 15.31142284138419
TIANMU-1 15             
1 58700U 24004A   26174.45482660  .00004482  00000+0  17152-3 0  9991
2 58700  97.4673   0.6467 0006084 339.0112  21.0876 15.27076957136731
TIANMU-1 16             
1 58701U 24004B   26175.29718972  .00004687  00000+0  18069-3 0  9998
2 58701  97.4619   0.7182 0005122 341.6523  18.4530 15.26810146136860
TIANMU-1 17             
1 58702U 24004C   26175.28264831  .00004777  00000+0  18412-3 0  9990
2 58702  97.4648   1.1911 0004826 349.3020  10.8115 15.26809020136858
TIANMU-1 18             
1 58703U 24004D   26175.32337405  .00004724  00000+0  18074-3 0  9990
2 58703  97.4664   1.4919 0003328 349.9344  10.1827 15.27065777136867
